NORAD_CAT_ID,OBJECT_NAME,OBJECT_TYPE,EPOCH,MEAN_MOTION,ECCENTRICITY,INCLINATION,RA_OF_ASC_NODE,ARG_OF_PERICENTER,MEAN_ANOMALY,BSTAR,MEAN_MOTION_DOT,MEAN_MOTION_DDOT,TLE_LINE0,TLE_LINE1,TLE_LINE2,SEMIMAJOR_AXIS,PERIOD,APOGEE,PERIGEE,DECAYED
52126.0,STARLINK-3732,PAYLOAD,2022-03-31 14:00:01,15.73246347,0.0001118,53.2164,82.75,61.4866,236.8223,-0.00027311,-0.00038847,0.0,0 STARLINK-3732,1 52126U 22029AQ  22090.58334491 -.00038847  00000-0 -27311-3 0  9990,2 52126  53.2164  82.7500 0001118  61.4866 236.8223 15.73246347  2700,6727.763000000001,91.53,350.38,348.876,0.0
52126.0,STARLINK-3732,PAYLOAD,2022-03-31 22:00:00,15.732022400000002,0.0001188,53.2168,81.0985,75.7751,311.5261,0.0006087,0.0008569,0.0,0 STARLINK-3732,1 52126U 22029AQ  22090.91667824  .00085690  00000-0  60870-3 0  9999,2 52126  53.2168  81.0985 0001188  75.7751 311.5261 15.73202240  2764,6727.889,91.533,350.55300000000005,348.955,0.0
52126.0,STARLINK-3732,PAYLOAD,2022-04-01 14:00:01,15.73258682,9.78e-05,53.2167,77.8007,63.1442,142.1255,-0.00067201,-0.00094115,0.0,0 STARLINK-3732,1 52126U 22029AQ  22091.58334491 -.00094115  00000-0 -67201-3 0  9993,2 52126  53.2167  77.8007 0000978  63.1442 142.1255 15.73258682  3364,6727.728,91.53,350.251,348.935,0.0
52126.0,STARLINK-3732,PAYLOAD,2022-04-01 22:00:00,15.73194113,9.990000000000004e-05,53.2169,76.1497,80.9229,213.3101,-0.00015466,-0.00022261,0.0,0 STARLINK-3732,1 52126U 22029AQ  22091.91667824 -.00022261  00000-0 -15466-3 0  9998,2 52126  53.2169  76.1497 0000999  80.9229 213.3101 15.73194113  2913,6727.9119999999975,91.534,350.449,349.105,0.0
52126.0,STARLINK-3732,PAYLOAD,2022-04-02 04:00:00,15.73191477,0.0001146,53.2168,74.9143,73.6273,197.2929,-0.00058733,-0.00082215,0.0,0 STARLINK-3732,1 52126U 22029AQ  22092.16667824 -.00082215  00000-0 -58733-3 0  9995,2 52126  53.2168  74.9143 0001146  73.6273 197.2929 15.73191477  3457,6727.919,91.534,350.555,349.01300000000015,0.0
52126.0,STARLINK-3732,PAYLOAD,2022-04-02 12:00:00,15.73140579,0.0001261,53.2168,73.2652,71.0049,288.8278,0.00067333,0.00094706,0.0,0 STARLINK-3732,1 52126U 22029AQ  22092.50001157  .00094706  00000-0  67333-3 0  9996,2 52126  53.2168  73.2652 0001261  71.0049 288.8278 15.73140579  3502,6728.065,91.537,350.778,349.081,0.0
52126.0,STARLINK-3732,PAYLOAD,2022-04-02 20:00:01,15.73216507,0.0001216,53.2173,71.6137,84.3445,4.3797,-0.00031913,-0.00045198,0.0,0 STARLINK-3732,1 52126U 22029AQ  22092.83334491 -.00045198  00000-0 -31913-3 0  9990,2 52126  53.2173  71.6137 0001216  84.3445   4.3797 15.73216507  3563,6727.848000000001,91.532,350.531,348.895,0.0
52126.0,STARLINK-3732,PAYLOAD,2022-04-02 22:00:01,15.7323082,0.0001273,53.2175,71.2013,87.6529,113.3663,-0.00066775,-0.00093422,0.0,0 STARLINK-3732,1 52126U 22029AQ  22092.91668981 -.00093422  00000-0 -66775-3 0  9990,2 52126  53.2175  71.2013 0001273  87.6529 113.3663 15.73230820  3079,6727.807,91.531,350.529,348.816,0.0
52126.0,STARLINK-3732,PAYLOAD,2022-04-03 20:00:01,15.7310121,0.000118,53.2175,66.6657,89.4095,266.0432,0.00091665,0.00129476,0.0,0 STARLINK-3732,1 52126U 22029AQ  22093.83335648  .00129476  00000-0  91665-3 0  9996,2 52126  53.2175  66.6657 0001180  89.4095 266.0432 15.73101210  3717,6728.177,91.539,350.836,349.24800000000016,0.0
52126.0,STARLINK-3732,PAYLOAD,2022-04-03 22:00:00,15.73140543,0.0001179,53.2177,66.2537,91.4797,16.1079,0.00061163,0.0008588,0.0,0 STARLINK-3732,1 52126U 22029AQ  22093.91667824  .00085880  00000-0  61163-3 0  9999,2 52126  53.2177  66.2537 0001179  91.4797  16.1079 15.73140543  3232,6728.065,91.537,350.723,349.136,0.0
52126.0,STARLINK-3732,PAYLOAD,2022-04-04 04:00:00,15.7319964,0.0001057,53.2176,65.0185,80.2261,4.0104,-0.0003993,-0.00056282,0.0,0 STARLINK-3732,1 52126U 22029AQ  22094.16667824 -.00056282  00000-0 -39930-3 0  9990,2 52126  53.2176  65.0185 0001057  80.2261   4.0104 15.73199640  3770,6727.896,91.533,350.472,349.05,0.0
52126.0,STARLINK-3732,PAYLOAD,2022-04-04 12:00:00,15.73186612,8.82e-05,53.2175,63.3691,78.5189,94.6261,0.00041409,0.00057862,0.0,0 STARLINK-3732,1 52126U 22029AQ  22094.50001157  .00057862  00000-0  41409-3 0  9996,2 52126  53.2175  63.3691 0000882  78.5189  94.6261 15.73186612  3826,6727.933000000001,91.534,350.392,349.205,0.0
52126.0,STARLINK-3732,PAYLOAD,2022-04-04 14:00:01,15.73204293,8.72e-05,53.2177,62.956,84.3913,200.98,0.00033562,0.00046753,0.0,0 STARLINK-3732,1 52126U 22029AQ  22094.58334491  .00046753  00000-0  33562-3 0  9992,2 52126  53.2177  62.9560 0000872  84.3913 200.9800 15.73204293  3341,6727.8830000000025,91.533,350.335,349.161,0.0
52126.0,STARLINK-3732,PAYLOAD,2022-04-04 22:00:00,15.73254672,9.95e-05,53.2182,61.3055,94.1725,280.1498,0.00059188,0.00083471,0.0,0 STARLINK-3732,1 52126U 22029AQ  22094.91667824  .00083471  00000-0  59188-3 0  9998,2 52126  53.2182  61.3055 0000995  94.1725 280.1498 15.73254672  3399,6727.739000000001,91.53,350.274,348.935,0.0
52126.0,STARLINK-3732,PAYLOAD,2022-04-05 14:00:01,15.73265663,0.0001076,53.2181,58.0073,87.9367,104.4933,-0.00089859,-0.00125218,0.0,0 STARLINK-3732,1 52126U 22029AQ  22095.58335648 -.00125218  00000-0 -89859-3 0  9994,2 52126  53.2181  58.0073 0001076  87.9367 104.4933 15.73265663  3994,6727.708000000001,91.529,350.297,348.849,0.0
52126.0,STARLINK-3732,PAYLOAD,2022-04-05 22:00:00,15.73168257,0.0001146,53.2182,56.3573,98.8406,182.4697,5.314e-05,6.834e-05,0.0,0 STARLINK-3732,1 52126U 22029AQ  22095.91667824  .00006834  00000-0  53140-4 0  9990,2 52126  53.2182  56.3573 0001146  98.8406 182.4697 15.73168257  3550,6727.986,91.535,350.622,349.08,0.0
52126.0,STARLINK-3732,PAYLOAD,2022-04-06 04:00:00,15.73173967,0.0001168,53.2178,55.1222,88.1787,169.7965,-0.00032321,-0.00045683,0.0,0 STARLINK-3732,1 52126U 22029AQ  22096.16667824 -.00045683  00000-0 -32321-3 0  9992,2 52126  53.2178  55.1222 0001168  88.1787 169.7965 15.73173967  4080,6727.969,91.535,350.62,349.0490000000001,0.0
52126.0,STARLINK-3732,PAYLOAD,2022-04-06 12:00:00,15.73160344,0.0001186,53.2177,53.4724,90.6322,256.2164,0.00033762,0.00046947,0.0,0 STARLINK-3732,1 52126U 22029AQ  22096.50001157  .00046947  00000-0  33762-3 0  9993,2 52126  53.2177  53.4724 0001186  90.6322 256.2164 15.73160344  4134,6728.0080000000025,91.535,350.671,349.075,0.0
52126.0,STARLINK-3732,PAYLOAD,2022-04-06 14:00:01,15.73169211,0.0001173,53.218,53.0594,96.0537,3.015,0.0003711,0.00051713,0.0,0 STARLINK-3732,1 52126U 22029AQ  22096.58334491  .00051713  00000-0  37110-3 0  9999,2 52126  53.2180  53.0594 0001173  96.0537   3.0150 15.73169211  3665,6727.983,91.535,350.63699999999994,349.059,0.0
52126.0,STARLINK-3732,PAYLOAD,2022-04-06 22:00:00,15.73236055,0.0001233,53.2183,51.4095,104.7876,83.1795,0.00018901,0.00026029,0.0,0 STARLINK-3732,1 52126U 22029AQ  22096.91667824  .00026029  00000-0  18901-3 0  9994,2 52126  53.2183  51.4095 0001233 104.7876  83.1795 15.73236055  3717,6727.792,91.531,350.487,348.82800000000015,0.0
52126.0,STARLINK-3732,PAYLOAD,2022-04-07 14:00:01,15.73213745,0.0001049,53.2181,48.111,100.4068,265.4881,-0.00011523,-0.00016768,0.0,0 STARLINK-3732,1 52126U 22029AQ  22097.58334491 -.00016768  00000-0 -11523-3 0  9993,2 52126  53.2181  48.1110 0001049 100.4068 265.4881 15.73213745  3720,6727.856,91.532,350.427,349.015,0.0
52126.0,STARLINK-3732,PAYLOAD,2022-04-07 20:00:01,15.73193382,0.0001085999999999,53.2181,46.8732,108.8097,233.7988,0.00036755,0.00051263,0.0,0 STARLINK-3732,1 52126U 22029AQ  22097.83334491  .00051263  00000-0  36755-3 0  9992,2 52126  53.2181  46.8732 0001086 108.8097 233.7988 15.73193382  4349,6727.9140000000025,91.534,350.51,349.048,0.0
52126.0,STARLINK-3732,PAYLOAD,2022-04-07 22:00:00,15.73196556,0.0001048,53.2181,46.4614,108.5287,346.3132,0.00044083,0.00061693,0.0,0 STARLINK-3732,1 52126U 22029AQ  22097.91667824  .00061693  00000-0  44083-3 0  9991,2 52126  53.2181  46.4614 0001048 108.5287 346.3132 15.73196556  3707,6727.905,91.533,350.475,349.065,0.0
52126.0,STARLINK-3732,PAYLOAD,2022-04-08 12:00:00,15.73279579,0.0001157,53.2176,43.5755,99.5031,61.0241,-0.0004885,-0.00068851,0.0,0 STARLINK-3732,1 52126U 22029AQ  22098.50001157 -.00068851  00000-0 -48850-3 0  9999,2 52126  53.2176  43.5755 0001157  99.5031  61.0241 15.73279579  4454,6727.668000000002,91.529,350.31199999999984,348.755,0.0
52126.0,STARLINK-3732,PAYLOAD,2022-04-08 14:00:03,15.73275883,0.0001197,53.2178,43.1625,104.7936,168.1148,-0.00052609,-0.00074044,0.0,0 STARLINK-3732,1 52126U 22029AQ  22098.58336806 -.00074044  00000-0 -52609-3 0  9997,2 52126  53.2178  43.1625 0001197 104.7936 168.1148 15.73275883  3712,6727.679,91.529,350.349,348.73900000000015,0.0
52126.0,STARLINK-3732,PAYLOAD,2022-04-08 22:00:00,15.73232081,0.0001192,53.2181,41.5128,109.9494,251.7916,-0.00055462,-0.00077846,0.0,0 STARLINK-3732,1 52126U 22029AQ  22098.91667824 -.00077846  00000-0 -55462-3 0  9994,2 52126  53.2181  41.5128 0001192 109.9494 251.7916 15.73232081  3701,6727.804,91.531,350.471,348.867,0.0
52126.0,STARLINK-3732,PAYLOAD,2022-04-09 14:00:01,15.73114172,0.0001057,53.218,38.2141,107.8649,71.6742,0.00048448,0.00067672,0.0,0 STARLINK-3732,1 52126U 22029AQ  22099.58334491  .00067672  00000-0  48448-3 0  9999,2 52126  53.2180  38.2141 0001057 107.8649  71.6742 15.73114172  3725,6728.14,91.538,350.716,349.2940000000001,0.0
52126.0,STARLINK-3732,PAYLOAD,2022-04-09 20:00:01,15.73162204,0.0001166,53.218,36.9768,113.9675,42.212,0.00064656,0.0009096,0.0,0 STARLINK-3732,1 52126U 22029AQ  22099.83334491  .00090960  00000-0  64656-3 0  9992,2 52126  53.2180  36.9768 0001166 113.9675  42.2120 15.73162204  4660,6728.003000000002,91.535,350.652,349.083,0.0
52126.0,STARLINK-3732,PAYLOAD,2022-04-09 22:00:00,15.73191997,0.000112,53.2179,36.5651,111.9475,156.451,0.00038884,0.00054285,0.0,0 STARLINK-3732,1 52126U 22029AQ  22099.91667824  .00054285  00000-0  38884-3 0  9994,2 52126  53.2179  36.5651 0001120 111.9475 156.4510 15.73191997  3718,6727.918000000002,91.534,350.537,349.029,0.0
